<?xml version="1.0" encoding="UTF-8"?>
<kml xmlns="http://www.opengis.net/kml/2.2">
  <Document>
    <name>CUADRICULAS - CHIVILCOY</name>
    <description/>
    <Style id="poly-000000-1200-77-nodesc-normal">
      <LineStyle>
        <color>ff000000</color>
        <width>1.2</width>
      </LineStyle>
      <PolyStyle>
        <color>4d000000</color>
        <fill>1</fill>
        <outline>1</outline>
      </PolyStyle>
      <BalloonStyle>
        <text><![CDATA[<h3>$[name]</h3>]]></text>
      </BalloonStyle>
    </Style>
    <Style id="poly-000000-1200-77-nodesc-highlight">
      <LineStyle>
        <color>ff000000</color>
        <width>1.8</width>
      </LineStyle>
      <PolyStyle>
        <color>4d000000</color>
        <fill>1</fill>
        <outline>1</outline>
      </PolyStyle>
      <BalloonStyle>
        <text><![CDATA[<h3>$[name]</h3>]]></text>
      </BalloonStyle>
    </Style>
    <StyleMap id="poly-000000-1200-77-nodesc">
      <Pair>
        <key>normal</key>
        <styleUrl>#poly-000000-1200-77-nodesc-normal</styleUrl>
      </Pair>
      <Pair>
        <key>highlight</key>
        <styleUrl>#poly-000000-1200-77-nodesc-highlight</styleUrl>
      </Pair>
    </StyleMap>
    <Style id="poly-01579B-1200-77-nodesc-normal">
      <LineStyle>
        <color>ff9b5701</color>
        <width>1.2</width>
      </LineStyle>
      <PolyStyle>
        <color>4d9b5701</color>
        <fill>1</fill>
        <outline>1</outline>
      </PolyStyle>
      <BalloonStyle>
        <text><![CDATA[<h3>$[name]</h3>]]></text>
      </BalloonStyle>
    </Style>
    <Style id="poly-01579B-1200-77-nodesc-highlight">
      <LineStyle>
        <color>ff9b5701</color>
        <width>1.8</width>
      </LineStyle>
      <PolyStyle>
        <color>4d9b5701</color>
        <fill>1</fill>
        <outline>1</outline>
      </PolyStyle>
      <BalloonStyle>
        <text><![CDATA[<h3>$[name]</h3>]]></text>
      </BalloonStyle>
    </Style>
    <StyleMap id="poly-01579B-1200-77-nodesc">
      <Pair>
        <key>normal</key>
        <styleUrl>#poly-01579B-1200-77-nodesc-normal</styleUrl>
      </Pair>
      <Pair>
        <key>highlight</key>
        <styleUrl>#poly-01579B-1200-77-nodesc-highlight</styleUrl>
      </Pair>
    </StyleMap>
    <Style id="poly-0288D1-1200-77-nodesc-normal">
      <LineStyle>
        <color>ffd18802</color>
        <width>1.2</width>
      </LineStyle>
      <PolyStyle>
        <color>4dd18802</color>
        <fill>1</fill>
        <outline>1</outline>
      </PolyStyle>
      <BalloonStyle>
        <text><![CDATA[<h3>$[name]</h3>]]></text>
      </BalloonStyle>
    </Style>
    <Style id="poly-0288D1-1200-77-nodesc-highlight">
      <LineStyle>
        <color>ffd18802</color>
        <width>1.8</width>
      </LineStyle>
      <PolyStyle>
        <color>4dd18802</color>
        <fill>1</fill>
        <outline>1</outline>
      </PolyStyle>
      <BalloonStyle>
        <text><![CDATA[<h3>$[name]</h3>]]></text>
      </BalloonStyle>
    </Style>
    <StyleMap id="poly-0288D1-1200-77-nodesc">
      <Pair>
        <key>normal</key>
        <styleUrl>#poly-0288D1-1200-77-nodesc-normal</styleUrl>
      </Pair>
      <Pair>
        <key>highlight</key>
        <styleUrl>#poly-0288D1-1200-77-nodesc-highlight</styleUrl>
      </Pair>
    </StyleMap>
    <Style id="poly-0F9D58-1200-77-nodesc-normal">
      <LineStyle>
        <color>ff589d0f</color>
        <width>1.2</width>
      </LineStyle>
      <PolyStyle>
        <color>4d589d0f</color>
        <fill>1</fill>
        <outline>1</outline>
      </PolyStyle>
      <BalloonStyle>
        <text><![CDATA[<h3>$[name]</h3>]]></text>
      </BalloonStyle>
    </Style>
    <Style id="poly-0F9D58-1200-77-nodesc-highlight">
      <LineStyle>
        <color>ff589d0f</color>
        <width>1.8</width>
      </LineStyle>
      <PolyStyle>
        <color>4d589d0f</color>
        <fill>1</fill>
        <outline>1</outline>
      </PolyStyle>
      <BalloonStyle>
        <text><![CDATA[<h3>$[name]</h3>]]></text>
      </BalloonStyle>
    </Style>
    <StyleMap id="poly-0F9D58-1200-77-nodesc">
      <Pair>
        <key>normal</key>
        <styleUrl>#poly-0F9D58-1200-77-nodesc-normal</styleUrl>
      </Pair>
      <Pair>
        <key>highlight</key>
        <styleUrl>#poly-0F9D58-1200-77-nodesc-highlight</styleUrl>
      </Pair>
    </StyleMap>
    <Style id="poly-673AB7-1200-77-nodesc-normal">
      <LineStyle>
        <color>ffb73a67</color>
        <width>1.2</width>
      </LineStyle>
      <PolyStyle>
        <color>4db73a67</color>
        <fill>1</fill>
        <outline>1</outline>
      </PolyStyle>
      <BalloonStyle>
        <text><![CDATA[<h3>$[name]</h3>]]></text>
      </BalloonStyle>
    </Style>
    <Style id="poly-673AB7-1200-77-nodesc-highlight">
      <LineStyle>
        <color>ffb73a67</color>
        <width>1.8</width>
      </LineStyle>
      <PolyStyle>
        <color>4db73a67</color>
        <fill>1</fill>
        <outline>1</outline>
      </PolyStyle>
      <BalloonStyle>
        <text><![CDATA[<h3>$[name]</h3>]]></text>
      </BalloonStyle>
    </Style>
    <StyleMap id="poly-673AB7-1200-77-nodesc">
      <Pair>
        <key>normal</key>
        <styleUrl>#poly-673AB7-1200-77-nodesc-normal</styleUrl>
      </Pair>
      <Pair>
        <key>highlight</key>
        <styleUrl>#poly-673AB7-1200-77-nodesc-highlight</styleUrl>
      </Pair>
    </StyleMap>
    <Style id="poly-9C27B0-1200-77-nodesc-normal">
      <LineStyle>
        <color>ffb0279c</color>
        <width>1.2</width>
      </LineStyle>
      <PolyStyle>
        <color>4db0279c</color>
        <fill>1</fill>
        <outline>1</outline>
      </PolyStyle>
      <BalloonStyle>
        <text><![CDATA[<h3>$[name]</h3>]]></text>
      </BalloonStyle>
    </Style>
    <Style id="poly-9C27B0-1200-77-nodesc-highlight">
      <LineStyle>
        <color>ffb0279c</color>
        <width>1.8</width>
      </LineStyle>
      <PolyStyle>
        <color>4db0279c</color>
        <fill>1</fill>
        <outline>1</outline>
      </PolyStyle>
      <BalloonStyle>
        <text><![CDATA[<h3>$[name]</h3>]]></text>
      </BalloonStyle>
    </Style>
    <StyleMap id="poly-9C27B0-1200-77-nodesc">
      <Pair>
        <key>normal</key>
        <styleUrl>#poly-9C27B0-1200-77-nodesc-normal</styleUrl>
      </Pair>
      <Pair>
        <key>highlight</key>
        <styleUrl>#poly-9C27B0-1200-77-nodesc-highlight</styleUrl>
      </Pair>
    </StyleMap>
    <Style id="poly-C2185B-1200-77-nodesc-normal">
      <LineStyle>
        <color>ff5b18c2</color>
        <width>1.2</width>
      </LineStyle>
      <PolyStyle>
        <color>4d5b18c2</color>
        <fill>1</fill>
        <outline>1</outline>
      </PolyStyle>
      <BalloonStyle>
        <text><![CDATA[<h3>$[name]</h3>]]></text>
      </BalloonStyle>
    </Style>
    <Style id="poly-C2185B-1200-77-nodesc-highlight">
      <LineStyle>
        <color>ff5b18c2</color>
        <width>1.8</width>
      </LineStyle>
      <PolyStyle>
        <color>4d5b18c2</color>
        <fill>1</fill>
        <outline>1</outline>
      </PolyStyle>
      <BalloonStyle>
        <text><![CDATA[<h3>$[name]</h3>]]></text>
      </BalloonStyle>
    </Style>
    <StyleMap id="poly-C2185B-1200-77-nodesc">
      <Pair>
        <key>normal</key>
        <styleUrl>#poly-C2185B-1200-77-nodesc-normal</styleUrl>
      </Pair>
      <Pair>
        <key>highlight</key>
        <styleUrl>#poly-C2185B-1200-77-nodesc-highlight</styleUrl>
      </Pair>
    </StyleMap>
    <Style id="poly-F57C00-1200-77-nodesc-normal">
      <LineStyle>
        <color>ff007cf5</color>
        <width>1.2</width>
      </LineStyle>
      <PolyStyle>
        <color>4d007cf5</color>
        <fill>1</fill>
        <outline>1</outline>
      </PolyStyle>
      <BalloonStyle>
        <text><![CDATA[<h3>$[name]</h3>]]></text>
      </BalloonStyle>
    </Style>
    <Style id="poly-F57C00-1200-77-nodesc-highlight">
      <LineStyle>
        <color>ff007cf5</color>
        <width>1.8</width>
      </LineStyle>
      <PolyStyle>
        <color>4d007cf5</color>
        <fill>1</fill>
        <outline>1</outline>
      </PolyStyle>
      <BalloonStyle>
        <text><![CDATA[<h3>$[name]</h3>]]></text>
      </BalloonStyle>
    </Style>
    <StyleMap id="poly-F57C00-1200-77-nodesc">
      <Pair>
        <key>normal</key>
        <styleUrl>#poly-F57C00-1200-77-nodesc-normal</styleUrl>
      </Pair>
      <Pair>
        <key>highlight</key>
        <styleUrl>#poly-F57C00-1200-77-nodesc-highlight</styleUrl>
      </Pair>
    </StyleMap>
    <Style id="poly-FF5252-1200-77-nodesc-normal">
      <LineStyle>
        <color>ff5252ff</color>
        <width>1.2</width>
      </LineStyle>
      <PolyStyle>
        <color>4d5252ff</color>
        <fill>1</fill>
        <outline>1</outline>
      </PolyStyle>
      <BalloonStyle>
        <text><![CDATA[<h3>$[name]</h3>]]></text>
      </BalloonStyle>
    </Style>
    <Style id="poly-FF5252-1200-77-nodesc-highlight">
      <LineStyle>
        <color>ff5252ff</color>
        <width>1.8</width>
      </LineStyle>
      <PolyStyle>
        <color>4d5252ff</color>
        <fill>1</fill>
        <outline>1</outline>
      </PolyStyle>
      <BalloonStyle>
        <text><![CDATA[<h3>$[name]</h3>]]></text>
      </BalloonStyle>
    </Style>
    <StyleMap id="poly-FF5252-1200-77-nodesc">
      <Pair>
        <key>normal</key>
        <styleUrl>#poly-FF5252-1200-77-nodesc-normal</styleUrl>
      </Pair>
      <Pair>
        <key>highlight</key>
        <styleUrl>#poly-FF5252-1200-77-nodesc-highlight</styleUrl>
      </Pair>
    </StyleMap>
    <Style id="poly-FFD600-1200-77-nodesc-normal">
      <LineStyle>
        <color>ff00d6ff</color>
        <width>1.2</width>
      </LineStyle>
      <PolyStyle>
        <color>4d00d6ff</color>
        <fill>1</fill>
        <outline>1</outline>
      </PolyStyle>
      <BalloonStyle>
        <text><![CDATA[<h3>$[name]</h3>]]></text>
      </BalloonStyle>
    </Style>
    <Style id="poly-FFD600-1200-77-nodesc-highlight">
      <LineStyle>
        <color>ff00d6ff</color>
        <width>1.8</width>
      </LineStyle>
      <PolyStyle>
        <color>4d00d6ff</color>
        <fill>1</fill>
        <outline>1</outline>
      </PolyStyle>
      <BalloonStyle>
        <text><![CDATA[<h3>$[name]</h3>]]></text>
      </BalloonStyle>
    </Style>
    <StyleMap id="poly-FFD600-1200-77-nodesc">
      <Pair>
        <key>normal</key>
        <styleUrl>#poly-FFD600-1200-77-nodesc-normal</styleUrl>
      </Pair>
      <Pair>
        <key>highlight</key>
        <styleUrl>#poly-FFD600-1200-77-nodesc-highlight</styleUrl>
      </Pair>
    </StyleMap>
    <Folder>
      <name>Chivilcoy</name>
      <Placemark>
        <name>Chivilcoy</name>
        <styleUrl>#poly-000000-1200-77-nodesc</styleUrl>
        <Polygon>
          <outerBoundaryIs>
            <LinearRing>
              <tessellate>1</tessellate>
              <coordinates>
                -60.0883653,-34.8430474,0
                -60.0887375,-34.8430074,0
                -60.0890916,-34.8429898,0
                -60.0894563,-34.8430339,0
                -60.0897031,-34.8431307,0
                -60.090143,-34.8433509,0
                -60.0905185,-34.8439496,0
                -60.091012,-34.8448742,0
                -60.0917309,-34.8464503,0
                -60.0922673,-34.8482113,0
                -60.0929539,-34.8505445,0
                -60.0942844,-34.8549467,0
                -60.0955075,-34.8591725,0
                -60.096119,-34.8611797,0
                -60.0966126,-34.8627732,0
                -60.096913,-34.863451,0
                -60.0980181,-34.865687,0
                -60.1002711,-34.8701852,0
                -60.1016979,-34.8729843,0
                -60.1035111,-34.8766371,0
                -60.1045518,-34.8786351,0
                -60.1056354,-34.8807827,0
                -60.1063972,-34.8823053,0
                -60.1071375,-34.8837927,0
                -60.1074684,-34.884762,0
                -60.0786782,-34.9068096,0
                -60.0558071,-34.9239682,0
                -60.0526421,-34.9262114,0
                -60.0442682,-34.9325226,0
                -60.0430666,-34.9334374,0
                -60.0192653,-34.95164,0
                -60.0153315,-34.9479836,0
                -60.0078213,-34.9410359,0
                -60.0019203,-34.9354774,0
                -59.9985515,-34.9323813,0
                -59.995011,-34.929074,0
                -59.9925005,-34.9267342,0
                -59.9895393,-34.9239897,0
                -59.9885915,-34.923108,0
                -59.9876688,-34.9222459,0
                -59.987304,-34.9215597,0
                -59.9865315,-34.9211903,0
                -59.9853084,-34.9199411,0
                -59.9709532,-34.9085744,0
                -59.9594733,-34.8995292,0
                -59.9581,-34.8982268,0
                -59.9580356,-34.8980509,0
                -59.9580088,-34.8979101,0
                -59.9580035,-34.8977297,0
                -59.9580635,-34.8974831,0
                -59.959351,-34.8962863,0
                -59.9638786,-34.8929072,0
                -59.9685778,-34.8892639,0
                -59.9719037,-34.8868525,0
                -59.9768391,-34.8831737,0
                -59.9809375,-34.8800405,0
                -59.9843278,-34.8775585,0
                -59.9862805,-34.8763614,0
                -59.9897995,-34.8740729,0
                -59.9953355,-34.8699711,0
                -60.0012149,-34.8656225,0
                -60.0028672,-34.864707,0
                -60.0071802,-34.862471,0
                -60.0120695,-34.8592129,0
                -60.0158032,-34.8567478,0
                -60.0217364,-34.8533874,0
                -60.024263,-34.851992,0
                -60.02753,-34.850187,0
                -60.029402,-34.8492185,0
                -60.0301799,-34.8488663,0
                -60.0309577,-34.848589,0
                -60.0318321,-34.8483689,0
                -60.032508,-34.8482632,0
                -60.0332537,-34.8481707,0
                -60.0338384,-34.8481311,0
                -60.0422714,-34.8480563,0
                -60.0516216,-34.8479991,0
                -60.056503,-34.8479723,0
                -60.0669797,-34.8479239,0
                -60.0702091,-34.8479019,0
                -60.0757832,-34.8528202,0
                -60.0792881,-34.8500903,0
                -60.0800874,-34.849474,0
                -60.0815411,-34.8483866,0
                -60.0816323,-34.8483778,0
                -60.0818791,-34.8482633,0
                -60.0820025,-34.848052,0
                -60.0826516,-34.8474753,0
                -60.0835742,-34.8467621,0
                -60.0846686,-34.8458992,0
                -60.0865086,-34.844464,0
                -60.0873665,-34.8437846,0
                -60.0875744,-34.8436228,0
                -60.0876495,-34.8435722,0
                -60.0877916,-34.843483,0
                -60.0883653,-34.8430474,0
              </coordinates>
            </LinearRing>
          </outerBoundaryIs>
        </Polygon>
      </Placemark>
    </Folder>
    <Folder>
      <name>ZONA - 1</name>
      <Placemark>
        <name>ZONA 01</name>
        <styleUrl>#poly-FF5252-1200-77-nodesc</styleUrl>
        <Polygon>
          <outerBoundaryIs>
            <LinearRing>
              <tessellate>1</tessellate>
              <coordinates>
                -60.0717137,-34.8478889,0
                -60.0693533,-34.8497732,0
                -60.0698254,-34.8501606,0
                -60.0592897,-34.8579435,0
                -60.0354861,-34.8758705,0
                -60.0332545,-34.877534,0
                -60.034306,-34.878511,0
                -60.0291883,-34.882498,0
                -60.0219142,-34.888157,0
                -60.0200903,-34.8896267,0
                -60.0176119,-34.8914835,0
                -60.0150584,-34.8934723,0
                -60.0087499,-34.8879634,0
                -60.0031816,-34.8831053,0
                -59.9989866,-34.8794528,0
                -59.9911868,-34.872737,0
                -59.9965834,-34.8687407,0
                -60.0006389,-34.8657301,0
                -60.0020766,-34.8648674,0
                -60.0070869,-34.8622529,0
                -60.0089967,-34.8610116,0
                -60.0126123,-34.8586082,0
                -60.0151443,-34.8569003,0
                -60.0183951,-34.8550603,0
                -60.0255834,-34.8512216,0
                -60.0294136,-34.8491701,0
                -60.0304436,-34.8487475,0
                -60.0313555,-34.8484305,0
                -60.0321173,-34.8482632,0
                -60.0333082,-34.8481224,0
                -60.0343489,-34.8480695,0
                -60.0391447,-34.8480167,0
                -60.0416338,-34.8479991,0
                -60.0516974,-34.8479375,0
                -60.0616001,-34.847911,0
                -60.0678443,-34.8478494,0
                -60.0717137,-34.8478889,0
              </coordinates>
            </LinearRing>
          </outerBoundaryIs>
        </Polygon>
      </Placemark>
    </Folder>
    <Folder>
      <name>ZONA - 2</name>
      <Placemark>
        <name>ZONA 02</name>
        <styleUrl>#poly-F57C00-1200-77-nodesc</styleUrl>
        <Polygon>
          <outerBoundaryIs>
            <LinearRing>
              <tessellate>1</tessellate>
              <coordinates>
                -60.0420862,-34.8856125,0
                -60.0389352,-34.8880142,0
                -60.0229579,-34.900383,0
                -60.0206244,-34.8983526,0
                -60.0223926,-34.8969638,0
                -60.0191739,-34.8941831,0
                -60.0174187,-34.8955653,0
                -60.0150584,-34.8934723,0
                -60.0273614,-34.883936,0
                -60.034306,-34.878511,0
                -60.0332545,-34.877534,0
                -60.0384866,-34.8736662,0
                -60.0437223,-34.8696524,0
                -60.048915,-34.8657616,0
                -60.0543653,-34.8616593,0
                -60.0596224,-34.8576977,0
                -60.0698254,-34.8501606,0
                -60.0693533,-34.8497732,0
                -60.0709333,-34.8485038,0
                -60.0731128,-34.8504341,0
                -60.0741267,-34.8513629,0
                -60.0748938,-34.8520365,0
                -60.0756448,-34.8527056,0
                -60.0757789,-34.8528377,0
                -60.0761598,-34.8525339,0
                -60.0778979,-34.8512045,0
                -60.0793785,-34.8500423,0
                -60.0799804,-34.8497028,0
                -60.0815028,-34.8484682,0
                -60.0818955,-34.8482808,0
                -60.082168,-34.8480103,0
                -60.0827903,-34.8474644,0
                -60.0830907,-34.8472707,0
                -60.086565,-34.8444325,0
                -60.0876969,-34.8435608,0
                -60.0884264,-34.8430105,0
                -60.0885391,-34.8429928,0
                -60.0888341,-34.8429488,0
                -60.0890648,-34.8429356,0
                -60.0892713,-34.8429471,0
                -60.0896575,-34.8430263,0
                -60.0902154,-34.8432993,0
                -60.0905802,-34.843854,0
                -60.0909557,-34.8446113,0
                -60.0917175,-34.8461962,0
                -60.0920715,-34.8473056,0
                -60.056845,-34.8744247,0
                -60.0570274,-34.8746008,0
                -60.0555254,-34.8757362,0
                -60.0503219,-34.879741,0
                -60.0480044,-34.8815013,0
                -60.0476611,-34.8812548,0
                -60.044641,-34.8834551,0
                -60.0434661,-34.8843704,0
                -60.0420124,-34.8854661,0
                -60.0421411,-34.8855717,0
                -60.0420862,-34.8856125,0
              </coordinates>
            </LinearRing>
          </outerBoundaryIs>
        </Polygon>
      </Placemark>
    </Folder>
    <Folder>
      <name>ZONA - 3</name>
      <Placemark>
        <name>ZONA 03</name>
        <styleUrl>#poly-FFD600-1200-77-nodesc</styleUrl>
        <Polygon>
          <outerBoundaryIs>
            <LinearRing>
              <tessellate>1</tessellate>
              <coordinates>
                -60.1075444,-34.8847882,0
                -60.1025527,-34.8886195,0
                -60.0974672,-34.8926061,0
                -60.0924783,-34.896478,0
                -60.0876074,-34.9002354,0
                -60.0818675,-34.9045117,0
                -60.0817066,-34.9045909,0
                -60.0769966,-34.9081279,0
                -60.0767606,-34.9084359,0
                -60.0710957,-34.9126062,0
                -60.0646663,-34.9174088,0
                -60.0608361,-34.9202064,0
                -60.0559437,-34.9238835,0
                -60.0555682,-34.9241562,0
                -60.0529933,-34.9260738,0
                -60.0527036,-34.9262058,0
                -60.0477576,-34.9220273,0
                -60.0428868,-34.9177783,0
                -60.0380051,-34.9135027,0
                -60.035677,-34.9114704,0
                -60.0324369,-34.9086901,0
                -60.0284565,-34.9052235,0
                -60.0252485,-34.9024343,0
                -60.0229579,-34.900383,0
                -60.0421411,-34.8855717,0
                -60.0420124,-34.8854661,0
                -60.0476611,-34.8812548,0
                -60.0480044,-34.8815013,0
                -60.0570274,-34.8746008,0
                -60.056845,-34.8744247,0
                -60.0920715,-34.8473056,0
                -60.0924045,-34.8484401,0
                -60.0940245,-34.8541586,0
                -60.096578,-34.8626454,0
                -60.1075444,-34.8847882,0
              </coordinates>
            </LinearRing>
          </outerBoundaryIs>
        </Polygon>
      </Placemark>
    </Folder>
    <Folder>
      <name>ZONA - 4</name>
      <Placemark>
        <name>ZONA 04</name>
        <styleUrl>#poly-0F9D58-1200-77-nodesc</styleUrl>
        <Polygon>
          <outerBoundaryIs>
            <LinearRing>
              <tessellate>1</tessellate>
              <coordinates>
                -59.9974891,-34.9070348,0
                -59.9813162,-34.892756,0
                -59.9754545,-34.8892305,0
                -59.9716565,-34.8868895,0
                -59.9741348,-34.8850854,0
                -59.9793276,-34.8811777,0
                -59.9831578,-34.8782732,0
                -59.9833187,-34.8782204,0
                -59.9843272,-34.8774899,0
                -59.9850675,-34.8770146,0
                -59.989284,-34.87433,0
                -59.9894208,-34.8742639,0
                -59.9909417,-34.8731373,0
                -59.9913547,-34.872827,0
                -60.0151841,-34.8933687,0
                -59.9974891,-34.9070348,0
              </coordinates>
            </LinearRing>
          </outerBoundaryIs>
        </Polygon>
      </Placemark>
    </Folder>
    <Folder>
      <name>ZONA - 5 </name>
      <Placemark>
        <name>ZONA 05</name>
        <styleUrl>#poly-01579B-1200-77-nodesc</styleUrl>
        <Polygon>
          <outerBoundaryIs>
            <LinearRing>
              <tessellate>1</tessellate>
              <coordinates>
                -60.0054033,-34.9139748,0
                -59.9974891,-34.9070348,0
                -60.0150584,-34.8934723,0
                -60.0174187,-34.8955653,0
                -60.0158382,-34.8967763,0
                -60.0189826,-34.8996153,0
                -60.0206244,-34.8983526,0
                -60.0229579,-34.900383,0
                -60.0054033,-34.9139748,0
              </coordinates>
            </LinearRing>
          </outerBoundaryIs>
        </Polygon>
      </Placemark>
    </Folder>
    <Folder>
      <name>ZONA - 6</name>
      <Placemark>
        <name>ZONA 06</name>
        <styleUrl>#poly-673AB7-1200-77-nodesc</styleUrl>
        <Polygon>
          <outerBoundaryIs>
            <LinearRing>
              <tessellate>1</tessellate>
              <coordinates>
                -60.0054033,-34.913966,0
                -60.0229579,-34.9003742,0
                -60.0527036,-34.926197,0
                -60.0444542,-34.9324349,0
                -60.0432419,-34.9334025,0
                -60.0351363,-34.9396494,0
                -60.0303566,-34.9352583,0
                -60.0252942,-34.9309933,0
                -60.0206113,-34.926651,0
                -60.0202304,-34.9269237,0
                -60.0201992,-34.9268897,0
                -60.0180373,-34.925104,0
                -60.0148357,-34.9222889,0
                -60.0116171,-34.9195707,0
                -60.0054033,-34.913966,0
              </coordinates>
            </LinearRing>
          </outerBoundaryIs>
        </Polygon>
      </Placemark>
    </Folder>
    <Folder>
      <name>ZONA - 7</name>
      <Placemark>
        <name>ZONA 07</name>
        <styleUrl>#poly-9C27B0-1200-77-nodesc</styleUrl>
        <Polygon>
          <outerBoundaryIs>
            <LinearRing>
              <tessellate>1</tessellate>
              <coordinates>
                -60.0351363,-34.9396494,0
                -60.0191581,-34.9518688,0
                -59.9875615,-34.9224747,0
                -59.9868174,-34.9219252,0
                -59.988251,-34.9207843,0
                -59.9910995,-34.9185938,0
                -59.9940392,-34.9162889,0
                -59.9966248,-34.9142786,0
                -59.9998435,-34.9117844,0
                -60.001485,-34.9105263,0
                -60.0054033,-34.9139748,0
                -60.0202304,-34.9269237,0
                -60.0206113,-34.926651,0
                -60.0351363,-34.9396494,0
              </coordinates>
            </LinearRing>
          </outerBoundaryIs>
        </Polygon>
      </Placemark>
    </Folder>
    <Folder>
      <name>ZONA - 8</name>
      <Placemark>
        <name>ZONA 08</name>
        <styleUrl>#poly-C2185B-1200-77-nodesc</styleUrl>
        <Polygon>
          <outerBoundaryIs>
            <LinearRing>
              <tessellate>1</tessellate>
              <coordinates>
                -59.752862,-35.0848712,0
                -59.7531302,-35.0849634,0
                -59.7532751,-35.0850644,0
                -59.7534038,-35.0851302,0
                -59.7535058,-35.0851259,0
                -59.7536184,-35.085082,0
                -59.7544338,-35.0844279,0
                -59.7571643,-35.0822813,0
                -59.7577222,-35.0818423,0
                -59.7578992,-35.0819608,0
                -59.7593369,-35.0833041,0
                -59.7600557,-35.0839626,0
                -59.7601898,-35.0840723,0
                -59.7603078,-35.084103,0
                -59.7603937,-35.0840899,0
                -59.7606351,-35.0839275,0
                -59.7607316,-35.0838923,0
                -59.7608765,-35.0838923,0
                -59.7610159,-35.0839845,0
                -59.7616972,-35.0845815,0
                -59.7629042,-35.0856263,0
                -59.7645779,-35.0870529,0
                -59.7646959,-35.087088,0
                -59.7648032,-35.0870617,0
                -59.7659673,-35.0861311,0
                -59.7661604,-35.0859994,0
                -59.7662838,-35.0859555,0
                -59.7664018,-35.0859643,0
                -59.766611,-35.0861135,0
                -59.768789,-35.0880142,0
                -59.769481,-35.0885893,0
                -59.7696097,-35.0886419,0
                -59.7700925,-35.0886683,0
                -59.7716643,-35.0887473,0
                -59.773515,-35.0872899,0
                -59.7736813,-35.0872548,0
                -59.7738852,-35.087369,0
                -59.7741373,-35.0876016,0
                -59.7743572,-35.0878035,0
                -59.7758271,-35.0866403,0
                -59.777195,-35.0855912,0
                -59.777313,-35.0855297,0
                -59.7773989,-35.0855253,0
                -59.7774793,-35.0855517,0
                -59.7775383,-35.0855648,0
                -59.7778334,-35.0858106,0
                -59.7802957,-35.0879528,0
                -59.7811647,-35.0887429,0
                -59.7813203,-35.0903933,0
                -59.781213,-35.0905074,0
                -59.779314,-35.0920174,0
                -59.7831442,-35.0950986,0
                -59.7709777,-35.1047718,0
                -59.7627486,-35.0975916,0
                -59.7651734,-35.0956517,0
                -59.7653665,-35.0955376,0
                -59.7631563,-35.0936765,0
                -59.7630276,-35.0934483,0
                -59.7557105,-35.0920876,0
                -59.7508289,-35.0912361,0
                -59.7527532,-35.0848443,0
                -59.752862,-35.0848712,0
              </coordinates>
            </LinearRing>
          </outerBoundaryIs>
        </Polygon>
      </Placemark>
    </Folder>
    <Folder>
      <name>ZONA 9 - 10</name>
      <Placemark>
        <name>ZONA 09</name>
        <styleUrl>#poly-0288D1-1200-77-nodesc</styleUrl>
        <Polygon>
          <outerBoundaryIs>
            <LinearRing>
              <tessellate>1</tessellate>
              <coordinates>
                -60.001485,-34.9105263,0
                -59.9868174,-34.9219252,0
                -59.985991,-34.9208614,0
                -59.9835448,-34.9185301,0
                -59.9749296,-34.9117207,0
                -59.9654238,-34.9041981,0
                -59.9581711,-34.8982675,0
                -59.95786,-34.8978715,0
                -59.9578922,-34.8975987,0
                -59.9580531,-34.8973875,0
                -59.9594264,-34.8961556,0
                -59.9716565,-34.8868895,0
                -59.9813162,-34.892756,0
                -60.001485,-34.9105263,0
              </coordinates>
            </LinearRing>
          </outerBoundaryIs>
        </Polygon>
      </Placemark>
      <Placemark>
        <name>ZONA 10</name>
        <styleUrl>#poly-000000-1200-77-nodesc</styleUrl>
        <Polygon>
          <outerBoundaryIs>
            <LinearRing>
              <tessellate>1</tessellate>
              <coordinates>
                -60.0191739,-34.8941831,0
                -60.0223926,-34.8969638,0
                -60.0189826,-34.8996153,0
                -60.0158382,-34.8967763,0
                -60.0191739,-34.8941831,0
              </coordinates>
            </LinearRing>
          </outerBoundaryIs>
        </Polygon>
      </Placemark>
    </Folder>
  </Document>
</kml>
