<?xml version="1.0" encoding="UTF-8"?>
<kml xmlns="http://www.opengis.net/kml/2.2">
  <Document>
    <name>MapeoPoliductosv3</name>
    <description/>
    <Style id="icon-1899-0288D1-normal">
      <IconStyle>
        <color>ffd18802</color>
        <scale>1</scale>
        <Icon>
          <href>https://www.gstatic.com/mapspro/images/stock/503-wht-blank_maps.png</href>
        </Icon>
        <hotSpot x="32" xunits="pixels" y="64" yunits="insetPixels"/>
      </IconStyle>
      <LabelStyle>
        <scale>0</scale>
      </LabelStyle>
    </Style>
    <Style id="icon-1899-0288D1-highlight">
      <IconStyle>
        <color>ffd18802</color>
        <scale>1</scale>
        <Icon>
          <href>https://www.gstatic.com/mapspro/images/stock/503-wht-blank_maps.png</href>
        </Icon>
        <hotSpot x="32" xunits="pixels" y="64" yunits="insetPixels"/>
      </IconStyle>
      <LabelStyle>
        <scale>1</scale>
      </LabelStyle>
    </Style>
    <StyleMap id="icon-1899-0288D1">
      <Pair>
        <key>normal</key>
        <styleUrl>#icon-1899-0288D1-normal</styleUrl>
      </Pair>
      <Pair>
        <key>highlight</key>
        <styleUrl>#icon-1899-0288D1-highlight</styleUrl>
      </Pair>
    </StyleMap>
    <Style id="line-FFFF00-4000-nodesc-normal">
      <LineStyle>
        <color>ff00ffff</color>
        <width>4</width>
      </LineStyle>
      <BalloonStyle>
        <text><![CDATA[<h3>$[name]</h3>]]></text>
      </BalloonStyle>
    </Style>
    <Style id="line-FFFF00-4000-nodesc-highlight">
      <LineStyle>
        <color>ff00ffff</color>
        <width>6</width>
      </LineStyle>
      <BalloonStyle>
        <text><![CDATA[<h3>$[name]</h3>]]></text>
      </BalloonStyle>
    </Style>
    <StyleMap id="line-FFFF00-4000-nodesc">
      <Pair>
        <key>normal</key>
        <styleUrl>#line-FFFF00-4000-nodesc-normal</styleUrl>
      </Pair>
      <Pair>
        <key>highlight</key>
        <styleUrl>#line-FFFF00-4000-nodesc-highlight</styleUrl>
      </Pair>
    </StyleMap>
    <Folder>
      <name>VS Veracruz</name>
      <Placemark>
        <name>TRD PUENTE MORENO KM 63+434</name>
        <description>TRD PUENTE MORENO KM 63+434</description>
        <styleUrl>#icon-1899-0288D1</styleUrl>
        <Point>
          <coordinates>
            -96.151744,19.110636,0
          </coordinates>
        </Point>
      </Placemark>
      <Placemark>
        <name><![CDATA[VS LOS ROBLES 8" KM 69+528]]></name>
        <description><![CDATA[VS LOS ROBLES 8" KM 69+528]]></description>
        <styleUrl>#icon-1899-0288D1</styleUrl>
        <Point>
          <coordinates>
            -96.124376,18.975569,0
          </coordinates>
        </Point>
      </Placemark>
      <Placemark>
        <name><![CDATA[VS PIEDRAS NEGRAS 20'' KM 22+600]]></name>
        <description><![CDATA[VS PIEDRAS NEGRAS 20'' KM 22+600]]></description>
        <styleUrl>#icon-1899-0288D1</styleUrl>
        <Point>
          <coordinates>
            -96.174152,18.766472,0
          </coordinates>
        </Point>
      </Placemark>
      <Placemark>
        <name><![CDATA[VS MIR BLANCO 20'' KM 19+424]]></name>
        <description><![CDATA[VS MIR BLANCO 20'' KM 19+424]]></description>
        <styleUrl>#icon-1899-0288D1</styleUrl>
        <Point>
          <coordinates>
            -96.181777,18.740436,0
          </coordinates>
        </Point>
      </Placemark>
      <Placemark>
        <name><![CDATA[VS MDR BLANCO 20'' KM 19+339]]></name>
        <description><![CDATA[VS MDR BLANCO 20'' KM 19+339]]></description>
        <styleUrl>#icon-1899-0288D1</styleUrl>
        <Point>
          <coordinates>
            -96.182218,18.738411,0
          </coordinates>
        </Point>
      </Placemark>
      <Placemark>
        <name><![CDATA[VS ANGOSTURA 8" KM 22+632]]></name>
        <description><![CDATA[VS ANGOSTURA 8" KM 22+632    ZAPOAPITA   <br>KM 300+248.]]></description>
        <styleUrl>#icon-1899-0288D1</styleUrl>
        <Point>
          <coordinates>
            -96.331138,18.644637,0
          </coordinates>
        </Point>
      </Placemark>
      <Placemark>
        <name>VS MDR COTAXTLA KM 366+700</name>
        <description>VS MDR COTAXTLA KM 366+700</description>
        <styleUrl>#icon-1899-0288D1</styleUrl>
        <Point>
          <coordinates>
            -96.141906,19.036924,0
          </coordinates>
        </Point>
      </Placemark>
      <Placemark>
        <name>TRD MEDANO DEL PERRO KM 70+200</name>
        <description>TRD MEDANO DEL PERRO KM 70+200</description>
        <styleUrl>#icon-1899-0288D1</styleUrl>
        <Point>
          <coordinates>
            -96.138719,19.171689,0
          </coordinates>
        </Point>
      </Placemark>
      <Placemark>
        <name><![CDATA[VS M.I. RIO COTAXTLA 30" KM 243+005]]></name>
        <description><![CDATA[VS M.I. RIO COTAXTLA 30" KM 243+005]]></description>
        <styleUrl>#icon-1899-0288D1</styleUrl>
        <Point>
          <coordinates>
            -96.143497,19.037721,0
          </coordinates>
        </Point>
      </Placemark>
    </Folder>
    <Folder>
      <name>Veracruz FO</name>
      <Placemark>
        <name>Ramal Tierra Blanca</name>
        <styleUrl>#line-FFFF00-4000-nodesc</styleUrl>
        <LineString>
          <tessellate>1</tessellate>
          <coordinates>
            -96.342785,18.44329,0
            -96.342315,18.443553,0
            -96.341917,18.444155,0
            -96.341614,18.444768,0
            -96.340985,18.446219,0
            -96.34065,18.449822,0
            -96.341313,18.456604,0
            -96.341302,18.457059,0
            -96.341376,18.457091,0
            -96.341655,18.458265,0
            -96.341236,18.458892,0
            -96.337281,18.530029,0
            -96.336773,18.532457,0
            -96.337261,18.535868,0
            -96.332879,18.637681,0
            -96.333689,18.641787,0
            -96.334248,18.6429,0
            -96.332647,18.644349,0
            -96.33112,18.644672,0
            -96.27178,18.687145,0
            -96.182278,18.73872,0
            -96.180636,18.74514,0
            -96.174172,18.766713,0
            -96.17366,18.768238,0
            -96.167987,18.782735,0
            -96.122713,18.889212,0
            -96.123351,18.917803,0
            -96.124468,18.978328,0
            -96.123494,19.000355,0
            -96.137262,19.031672,0
            -96.137781,19.032263,0
            -96.137818,19.032291,0
            -96.139434,19.034634,0
            -96.139888,19.03551,0
            -96.140379,19.036212,0
            -96.14238,19.037376,0
            -96.144414,19.03852,0
            -96.146126,19.040251,0
            -96.14985,19.042506,0
            -96.150407,19.045161,0
            -96.152291,19.048507,0
            -96.160542,19.057888,0
            -96.160824,19.063371,0
            -96.159457,19.068248,0
            -96.158601,19.071393,0
            -96.156313,19.079525,0
            -96.156205,19.084481,0
            -96.151454,19.093686,0
            -96.149354,19.098087,0
            -96.149137,19.103764,0
            -96.149704,19.109456,0
            -96.149372,19.110596,0
            -96.14749,19.119024,0
            -96.146852,19.119368,0
            -96.146606,19.119871,0
            -96.146803,19.120052,0
            -96.14732,19.120294,0
            -96.147889,19.120618,0
            -96.148434,19.120933,0
            -96.148478,19.120993,0
            -96.148694,19.121214,0
            -96.148462,19.121457,0
            -96.148283,19.124549,0
            -96.146679,19.138668,0
            -96.146752,19.13927,0
            -96.146837,19.139689,0
            -96.146956,19.140275,0
            -96.147057,19.140651,0
            -96.147191,19.14082,0
            -96.147235,19.140842,0
            -96.147581,19.141127,0
            -96.147516,19.141916,0
            -96.147521,19.141938,0
            -96.147226,19.142816,0
            -96.144408,19.150045,0
            -96.138217,19.164051,0
            -96.138511,19.165079,0
            -96.138487,19.170141,0
            -96.138526,19.170607,0
            -96.138505,19.170983,0
            -96.138661,19.171554,0
            -96.138865,19.172227,0
            -96.139099,19.172472,0
            -96.139387,19.176169,0
            -96.13959,19.178172,0
            -96.14025,19.178576,0
            -96.142881,19.182269,0
            -96.146336,19.187277,0
            -96.148572,19.19018,0
            -96.154845,19.199042,0
            -96.148892,19.203067,0
          </coordinates>
        </LineString>
      </Placemark>
      <Placemark>
        <name>TAD Veracruz - ROMP Veracruz</name>
        <styleUrl>#line-FFFF00-4000-nodesc</styleUrl>
        <LineString>
          <tessellate>1</tessellate>
          <coordinates>
            -96.147809,19.207138,0
            -96.145988,19.208656,0
            -96.140761,19.215946,0
            -96.13522,19.217293,0
            -96.133983,19.217537,0
            -96.132886,19.217496,0
            -96.131969,19.217387,0
            -96.130983,19.217129,0
            -96.129642,19.216863,0
            -96.126354,19.216586,0
            -96.125966,19.216475,0
            -96.125566,19.216137,0
            -96.124006,19.214087,0
            -96.123876,19.213479,0
            -96.124671,19.212423,0
            -96.124385,19.209516,0
          </coordinates>
        </LineString>
      </Placemark>
    </Folder>
    <Folder>
      <name>TAD</name>
      <Placemark>
        <name>TAD ESCAMELA</name>
        <description>TAD Escamela    TAD Escamela</description>
        <styleUrl>#icon-1899-0288D1</styleUrl>
        <Point>
          <coordinates>
            -97.059094,18.860056,0
          </coordinates>
        </Point>
      </Placemark>
      <Placemark>
        <name>TAD VERACRUZ</name>
        <description>TAD Veracruz    TAD Veracruz</description>
        <styleUrl>#icon-1899-0288D1</styleUrl>
        <Point>
          <coordinates>
            -96.147514,19.203975,0
          </coordinates>
        </Point>
      </Placemark>
    </Folder>
    <Folder>
      <name>TRED MINA - MEX</name>
      <Placemark>
        <name>TRED  TIERRA BLANCA</name>
        <description>KM 215+616</description>
        <styleUrl>#icon-1899-0288D1</styleUrl>
        <Point>
          <coordinates>
            -96.30852,18.443182,0
          </coordinates>
        </Point>
      </Placemark>
      <Placemark>
        <name>TRED TAR PUEBLA</name>
        <description>KM 438+638</description>
        <styleUrl>#icon-1899-0288D1</styleUrl>
        <Point>
          <coordinates>
            -98.157623,19.077421,0
          </coordinates>
        </Point>
      </Placemark>
      <Placemark>
        <name>TRED TEPEACA (HUEYAPAN)</name>
        <description><![CDATA[TRED TEPEACA (HUEYAPAN)<br><br>KM 412+630]]></description>
        <styleUrl>#icon-1899-0288D1</styleUrl>
        <Point>
          <coordinates>
            -97.927914,19.010216,0
          </coordinates>
        </Point>
      </Placemark>
      <Placemark>
        <name>TRED TECAMACHALCO</name>
        <description><![CDATA[TRED Tecamachalco<br><br>KM 380+566]]></description>
        <styleUrl>#icon-1899-0288D1</styleUrl>
        <Point>
          <coordinates>
            -97.644727,18.91822,0
          </coordinates>
        </Point>
      </Placemark>
      <Placemark>
        <name>TED MALTRATA</name>
        <description>KM 338+516</description>
        <styleUrl>#icon-1899-0288D1</styleUrl>
        <Point>
          <coordinates>
            -97.274066,18.838318,0
          </coordinates>
        </Point>
      </Placemark>
      <Placemark>
        <name>TED CD. MENDOZA</name>
        <description>KM 328+013</description>
        <styleUrl>#icon-1899-0288D1</styleUrl>
        <Point>
          <coordinates>
            -97.19043,18.814509,0
          </coordinates>
        </Point>
      </Placemark>
      <Placemark>
        <name>TRD  ZAPOAPITA</name>
        <description>KM 300+248</description>
        <styleUrl>#icon-1899-0288D1</styleUrl>
        <Point>
          <coordinates>
            -96.97663,18.834085,0
          </coordinates>
        </Point>
      </Placemark>
      <Placemark>
        <name>TRED ARROYO MORENO</name>
        <description>KM 260+424</description>
        <styleUrl>#icon-1899-0288D1</styleUrl>
        <Point>
          <coordinates>
            -96.644536,18.679772,0
          </coordinates>
        </Point>
      </Placemark>
      <Placemark>
        <name>TRED  LOMA BONITA</name>
        <description>KM 149+185</description>
        <styleUrl>#icon-1899-0288D1</styleUrl>
        <Point>
          <coordinates>
            -95.756878,18.183608,0
          </coordinates>
        </Point>
      </Placemark>
      <Placemark>
        <name>TRD JUAN DIAZ COVARRUBIAS</name>
        <description>KM 76+996</description>
        <styleUrl>#icon-1899-0288D1</styleUrl>
        <Point>
          <coordinates>
            -95.162485,18.110493,0
          </coordinates>
        </Point>
      </Placemark>
      <Placemark>
        <name>TRED REFINERIA MINATITLAN</name>
        <description><![CDATA[FID   98    <br>   INST_TIPO   TED    <br>   INST_NOMBR   REFINERIA MINATITLAN]]></description>
        <styleUrl>#icon-1899-0288D1</styleUrl>
        <Point>
          <coordinates>
            -94.52788,17.98032,0
          </coordinates>
        </Point>
      </Placemark>
    </Folder>
    <Folder>
      <name>EST. MINA - MEX</name>
      <Placemark>
        <name>AZCAPOTZALCO</name>
        <description>AZCAPOTZALCO</description>
        <styleUrl>#icon-1899-0288D1</styleUrl>
        <Point>
          <coordinates>
            -99.20624,19.4679,0
          </coordinates>
        </Point>
      </Placemark>
      <Placemark>
        <name>EST. SAN MARTIN TEXMELUCAN</name>
        <description><![CDATA[EST. SAN MARTIN TEXMELUCAN   <br>KM 471+993.]]></description>
        <styleUrl>#icon-1899-0288D1</styleUrl>
        <Point>
          <coordinates>
            -98.406114,19.257749,0
          </coordinates>
        </Point>
      </Placemark>
      <Placemark>
        <name>EST. EB MALTRATA</name>
        <description><![CDATA[EST. EB MALTRATA   <br>KM 338+516.]]></description>
        <styleUrl>#icon-1899-0288D1</styleUrl>
        <Point>
          <coordinates>
            -97.273852,18.838236,0
          </coordinates>
        </Point>
      </Placemark>
      <Placemark>
        <name>EST. CD. MENDOZA</name>
        <description><![CDATA[EST. CD. MENDOZA   <br>KM 328+013.]]></description>
        <styleUrl>#icon-1899-0288D1</styleUrl>
        <Point>
          <coordinates>
            -97.19044,18.814416,0
          </coordinates>
        </Point>
      </Placemark>
      <Placemark>
        <name>EST. ZAPOAPITA</name>
        <description><![CDATA[EST. ZAPOAPITA   <br>KM 300+248.]]></description>
        <styleUrl>#icon-1899-0288D1</styleUrl>
        <Point>
          <coordinates>
            -96.974879,18.834826,0
          </coordinates>
        </Point>
      </Placemark>
      <Placemark>
        <name>EST. ARROYO MORENO</name>
        <description><![CDATA[EST. ARROYO MORENO   <br>KM 260+424.]]></description>
        <styleUrl>#icon-1899-0288D1</styleUrl>
        <Point>
          <coordinates>
            -96.645979,18.680513,0
          </coordinates>
        </Point>
      </Placemark>
      <Placemark>
        <name>EST. TIERRA BLANCA</name>
        <description><![CDATA[EST. TIERRA BLANCA   <br>KM 215+616.]]></description>
        <styleUrl>#icon-1899-0288D1</styleUrl>
        <Point>
          <coordinates>
            -96.30898,18.443039,0
          </coordinates>
        </Point>
      </Placemark>
      <Placemark>
        <name>EST. LOMA BONITA</name>
        <description><![CDATA[EST. LOMA BONITA   <br>KM 149+185.]]></description>
        <styleUrl>#icon-1899-0288D1</styleUrl>
        <Point>
          <coordinates>
            -95.759641,18.182898,0
          </coordinates>
        </Point>
      </Placemark>
      <Placemark>
        <name>EST. JUAN DIAZ COVARRUBIAS</name>
        <description><![CDATA[EST. JUAN DIAZ COVARRUBIAS   <br>KM 76+996.]]></description>
        <styleUrl>#icon-1899-0288D1</styleUrl>
        <Point>
          <coordinates>
            -95.162495,18.110545,0
          </coordinates>
        </Point>
      </Placemark>
      <Placemark>
        <name>EST. JALTIPAN</name>
        <description>EST. JALTIPAN</description>
        <styleUrl>#icon-1899-0288D1</styleUrl>
        <Point>
          <coordinates>
            -94.73603,18.004565,0
          </coordinates>
        </Point>
      </Placemark>
      <Placemark>
        <name>EST. COMP.  No. 3 (G.C.P.M)</name>
        <description><![CDATA[EST. COMP.  No. 3 (G.C.P.M)   <br>KM 12+591.]]></description>
        <styleUrl>#icon-1899-0288D1</styleUrl>
        <Point>
          <coordinates>
            -94.577725,18.008787,0
          </coordinates>
        </Point>
      </Placemark>
    </Folder>
    <Folder>
      <name>VS MINA - MEX</name>
      <Placemark>
        <name>VS LAS VEGAS</name>
        <description><![CDATA[VS LAS VEGAS<br><br>KM 572+142]]></description>
        <styleUrl>#icon-1899-0288D1</styleUrl>
        <Point>
          <coordinates>
            -99.073487,19.509505,0
          </coordinates>
        </Point>
      </Placemark>
      <Placemark>
        <name>VS BALASTRERA</name>
        <description><![CDATA[VS BALASTRERA<br><br>KM 334+321]]></description>
        <styleUrl>#icon-1899-0288D1</styleUrl>
        <Point>
          <coordinates>
            -97.247712,18.817264,0
          </coordinates>
        </Point>
      </Placemark>
      <Placemark>
        <name>VS REF. MINATITLAN</name>
        <description><![CDATA[VS REF. MINATITLAN<br><br>KM 0+000]]></description>
        <styleUrl>#icon-1899-0288D1</styleUrl>
        <Point>
          <coordinates>
            -94.527653,17.980531,0
          </coordinates>
        </Point>
      </Placemark>
      <Placemark>
        <name>V.S. MATALIMONES I</name>
        <description><![CDATA[V.S. MATALIMONES I<br><br>KM 117+305]]></description>
        <styleUrl>#icon-1899-0288D1</styleUrl>
        <Point>
          <coordinates>
            -95.530857,18.162676,0
          </coordinates>
        </Point>
      </Placemark>
      <Placemark>
        <name>V.S. VALLEJO</name>
        <description><![CDATA[V.S. VALLEJO<br><br>KM 584+229]]></description>
        <styleUrl>#icon-1899-0288D1</styleUrl>
        <Point>
          <coordinates>
            -99.167917,19.506422,0
          </coordinates>
        </Point>
      </Placemark>
      <Placemark>
        <name>V.S. POLITECNICO</name>
        <description><![CDATA[V.S. POLITECNICO<br><br>KM 578+820]]></description>
        <styleUrl>#icon-1899-0288D1</styleUrl>
        <Point>
          <coordinates>
            -99.12515,19.510427,0
          </coordinates>
        </Point>
      </Placemark>
      <Placemark>
        <name>V.S. SAN CRISTOBAL (RESIDENCIA MEXICO)</name>
        <description><![CDATA[V.S. SAN CRISTOBAL (RESIDENCIA MEXICO)<br><br>KM 563+641]]></description>
        <styleUrl>#icon-1899-0288D1</styleUrl>
        <Point>
          <coordinates>
            -99.02838,19.573087,0
          </coordinates>
        </Point>
      </Placemark>
      <Placemark>
        <name>V.S. TEZOYUCA</name>
        <description><![CDATA[V.S. TEZOYUCA<br><br>KM 546+284]]></description>
        <styleUrl>#icon-1899-0288D1</styleUrl>
        <Point>
          <coordinates>
            -98.900064,19.582536,0
          </coordinates>
        </Point>
      </Placemark>
      <Placemark>
        <name>VS TEPETLAOXTOC</name>
        <description><![CDATA[VS TEPETLAOXTOC<br><br>KM 531+680]]></description>
        <styleUrl>#icon-1899-0288D1</styleUrl>
        <Point>
          <coordinates>
            -98.7693,19.569725,0
          </coordinates>
        </Point>
      </Placemark>
      <Placemark>
        <name>V.S. SAN CRISTOBAL (RESIDENCIA MEXICO)</name>
        <description><![CDATA[V.S. SAN CRISTOBAL (RESIDENCIA MEXICO)<br><br>KM 525+765]]></description>
        <styleUrl>#icon-1899-0288D1</styleUrl>
        <Point>
          <coordinates>
            -98.715574,19.57574,0
          </coordinates>
        </Point>
      </Placemark>
      <Placemark>
        <name>VS Nanacamilpa</name>
        <description><![CDATA[VS Nanacamilpa 24"]]></description>
        <styleUrl>#icon-1899-0288D1</styleUrl>
        <Point>
          <coordinates>
            -98.562286,19.467451,0
          </coordinates>
        </Point>
      </Placemark>
      <Placemark>
        <name>V.S. LAS DALIAS</name>
        <description><![CDATA[V.S. LAS DALIAS<br><br>KM 493+562]]></description>
        <styleUrl>#icon-1899-0288D1</styleUrl>
        <Point>
          <coordinates>
            -98.513085,19.415696,0
          </coordinates>
        </Point>
      </Placemark>
      <Placemark>
        <name>VS Tláloc</name>
        <description><![CDATA[24" VS Tláloc]]></description>
        <styleUrl>#icon-1899-0288D1</styleUrl>
        <Point>
          <coordinates>
            -98.496956,19.387415,0
          </coordinates>
        </Point>
      </Placemark>
      <Placemark>
        <name>V.S. SAN ANTONIO ARENAS</name>
        <description><![CDATA[V.S. SAN ANTONIO ARENAS<br><br>KM 482+781]]></description>
        <styleUrl>#icon-1899-0288D1</styleUrl>
        <Point>
          <coordinates>
            -98.474874,19.330223,0
          </coordinates>
        </Point>
      </Placemark>
      <Placemark>
        <name>V.S. SAN MIGUEL XOXTLA</name>
        <description><![CDATA[V.S. SAN MIGUEL XOXTLA<br><br>KM 462+186]]></description>
        <styleUrl>#icon-1899-0288D1</styleUrl>
        <Point>
          <coordinates>
            -98.339653,19.187674,0
          </coordinates>
        </Point>
      </Placemark>
      <Placemark>
        <name>V.S. VOLKSWAGEN</name>
        <description><![CDATA[V.S. VOLKSWAGEN<br><br>KM 449+736]]></description>
        <styleUrl>#icon-1899-0288D1</styleUrl>
        <Point>
          <coordinates>
            -98.241071,19.125339,0
          </coordinates>
        </Point>
      </Placemark>
      <Placemark>
        <name>VS El Rastro</name>
        <description><![CDATA[24" VS El Rastro]]></description>
        <styleUrl>#icon-1899-0288D1</styleUrl>
        <Point>
          <coordinates>
            -98.206713,19.098831,0
          </coordinates>
        </Point>
      </Placemark>
      <Placemark>
        <name><![CDATA[VT 8" O Agcia Puebla LPG]]></name>
        <description><![CDATA[VT 8" O Agcia Puebla LPG<br><br>KM 438+638]]></description>
        <styleUrl>#icon-1899-0288D1</styleUrl>
        <Point>
          <coordinates>
            -98.158015,19.077536,0
          </coordinates>
        </Point>
      </Placemark>
      <Placemark>
        <name>V.S. LA RESURECCION</name>
        <description><![CDATA[V.S. LA RESURECCION<br><br>KM 436+882]]></description>
        <styleUrl>#icon-1899-0288D1</styleUrl>
        <Point>
          <coordinates>
            -98.142285,19.071675,0
          </coordinates>
        </Point>
      </Placemark>
      <Placemark>
        <name>VS Hueyapan</name>
        <description><![CDATA[VS Hueyapan<br><br>KM 412+630]]></description>
        <styleUrl>#icon-1899-0288D1</styleUrl>
        <Point>
          <coordinates>
            -97.930505,19.011137,0
          </coordinates>
        </Point>
      </Placemark>
      <Placemark>
        <name>VS San Juan Acoxac</name>
        <description><![CDATA[24" VS San Juan Acoxac]]></description>
        <styleUrl>#icon-1899-0288D1</styleUrl>
        <Point>
          <coordinates>
            -97.822381,18.9776,0
          </coordinates>
        </Point>
      </Placemark>
      <Placemark>
        <name>V.S. ACATZINGO</name>
        <description><![CDATA[V.S. ACATZINGO<br><br>KM 395+661]]></description>
        <styleUrl>#icon-1899-0288D1</styleUrl>
        <Point>
          <coordinates>
            -97.775203,18.968633,0
          </coordinates>
        </Point>
      </Placemark>
      <Placemark>
        <name>V.S. TECAMACHALCO</name>
        <description><![CDATA[V.S. TECAMACHALCO<br><br>KM 380+566]]></description>
        <styleUrl>#icon-1899-0288D1</styleUrl>
        <Point>
          <coordinates>
            -97.643262,18.919134,0
          </coordinates>
        </Point>
      </Placemark>
      <Placemark>
        <name>V.S. CUESTA BLANCA</name>
        <description><![CDATA[V.S. CUESTA BLANCA<br><br>KM 361+795]]></description>
        <styleUrl>#icon-1899-0288D1</styleUrl>
        <Point>
          <coordinates>
            -97.483881,18.860771,0
          </coordinates>
        </Point>
      </Placemark>
      <Placemark>
        <name>V.S. ALTA LUZ</name>
        <description><![CDATA[V.S. ALTA LUZ<br><br>KM 339+595]]></description>
        <styleUrl>#icon-1899-0288D1</styleUrl>
        <Point>
          <coordinates>
            -97.282729,18.835401,0
          </coordinates>
        </Point>
      </Placemark>
      <Placemark>
        <name>V.S. NOGALES II</name>
        <description><![CDATA[V.S. NOGALES II<br><br>KM 324+701]]></description>
        <styleUrl>#icon-1899-0288D1</styleUrl>
        <Point>
          <coordinates>
            -97.165138,18.818712,0
          </coordinates>
        </Point>
      </Placemark>
      <Placemark>
        <name>V.S. NOGALES I</name>
        <description><![CDATA[V.S. NOGALES I<br><br>KM 323+302]]></description>
        <styleUrl>#icon-1899-0288D1</styleUrl>
        <Point>
          <coordinates>
            -97.156342,18.823428,0
          </coordinates>
        </Point>
      </Placemark>
      <Placemark>
        <name>V.S. JALAPILLA</name>
        <description><![CDATA[V.S. JALAPILLA<br><br>KM 315+458]]></description>
        <styleUrl>#icon-1899-0288D1</styleUrl>
        <Point>
          <coordinates>
            -97.088384,18.832071,0
          </coordinates>
        </Point>
      </Placemark>
      <Placemark>
        <name>VS IXTACZOQUITLAN</name>
        <description><![CDATA[VS IXTACZOQUITLAN<br><br>KM 311+276]]></description>
        <styleUrl>#icon-1899-0288D1</styleUrl>
        <Point>
          <coordinates>
            -97.060012,18.859823,0
          </coordinates>
        </Point>
      </Placemark>
      <Placemark>
        <name>V.S. TUXPANGUILLO</name>
        <description><![CDATA[V.S. TUXPANGUILLO<br><br>KM 304+865]]></description>
        <styleUrl>#icon-1899-0288D1</styleUrl>
        <Point>
          <coordinates>
            -97.017306,18.83392,0
          </coordinates>
        </Point>
      </Placemark>
      <Placemark>
        <name>V.S. OMEALCA</name>
        <description><![CDATA[V.S. OMEALCA<br><br>KM 279+344]]></description>
        <styleUrl>#icon-1899-0288D1</styleUrl>
        <Point>
          <coordinates>
            -96.805882,18.751253,0
          </coordinates>
        </Point>
      </Placemark>
      <Placemark>
        <name>V.S. TETELA</name>
        <description><![CDATA[V.S. TETELA<br><br>KM 242+386]]></description>
        <styleUrl>#icon-1899-0288D1</styleUrl>
        <Point>
          <coordinates>
            -96.510539,18.582895,0
          </coordinates>
        </Point>
      </Placemark>
      <Placemark>
        <name>V.S. BASURERO</name>
        <description><![CDATA[V.S. ENTRONQUE TIERRA BLANCA(BASURERO)<br><br>KM 219+409]]></description>
        <styleUrl>#icon-1899-0288D1</styleUrl>
        <Point>
          <coordinates>
            -96.341384,18.457093,0
          </coordinates>
        </Point>
      </Placemark>
      <Placemark>
        <name>V.S. NARANJOS</name>
        <description><![CDATA[V.S. NARANJOS<br><br>KM 194+870]]></description>
        <styleUrl>#icon-1899-0288D1</styleUrl>
        <Point>
          <coordinates>
            -96.130428,18.366683,0
          </coordinates>
        </Point>
      </Placemark>
      <Placemark>
        <name>V.S. MIR PAPALOAPAN</name>
        <description><![CDATA[V.S. MIR PAPALOAPAN<br><br>KM 169+659]]></description>
        <styleUrl>#icon-1899-0288D1</styleUrl>
        <Point>
          <coordinates>
            -95.911169,18.276157,0
          </coordinates>
        </Point>
      </Placemark>
      <Placemark>
        <name>V.S. MDR PAPALOAPAN</name>
        <description><![CDATA[V.S. MDR PAPALOAPAN<br><br>KM 169+101]]></description>
        <styleUrl>#icon-1899-0288D1</styleUrl>
        <Point>
          <coordinates>
            -95.90892,18.27267,0
          </coordinates>
        </Point>
      </Placemark>
      <Placemark>
        <name>V.S. MDR SAN JUAN</name>
        <description><![CDATA[V.S. MDR SAN JUAN<br><br>KM 88+930]]></description>
        <styleUrl>#icon-1899-0288D1</styleUrl>
        <Point>
          <coordinates>
            -95.271802,18.126927,0
          </coordinates>
        </Point>
      </Placemark>
      <Placemark>
        <name>V.S. MIR TESECHOACAN</name>
        <description><![CDATA[V.S. MIR TESECHOACAN<br><br>KM 131+748]]></description>
        <styleUrl>#icon-1899-0288D1</styleUrl>
        <Point>
          <coordinates>
            -95.652478,18.129302,0
          </coordinates>
        </Point>
      </Placemark>
      <Placemark>
        <name>V.S. MDR TESECHOACAN</name>
        <description><![CDATA[V.S. MDR TESECHOACAN<br><br>KM 131+184]]></description>
        <styleUrl>#icon-1899-0288D1</styleUrl>
        <Point>
          <coordinates>
            -95.645117,18.128621,0
          </coordinates>
        </Point>
      </Placemark>
      <Placemark>
        <name>V.S. MIR SAN JUAN</name>
        <description><![CDATA[V.S. MIR SAN JUAN<br><br>KM 89+316]]></description>
        <styleUrl>#icon-1899-0288D1</styleUrl>
        <Point>
          <coordinates>
            -95.275151,18.125721,0
          </coordinates>
        </Point>
      </Placemark>
      <Placemark>
        <name>V.S. SAN OCTAVIO</name>
        <description><![CDATA[V.S. SAN OCTAVIO<br><br>KM 65+666]]></description>
        <styleUrl>#icon-1899-0288D1</styleUrl>
        <Point>
          <coordinates>
            -95.057507,18.094779,0
          </coordinates>
        </Point>
      </Placemark>
      <Placemark>
        <name>V.S. EL ZACATAL</name>
        <description><![CDATA[V.S. EL ZACATAL<br><br>KM 38+593]]></description>
        <styleUrl>#icon-1899-0288D1</styleUrl>
        <Point>
          <coordinates>
            -94.817521,18.029829,0
          </coordinates>
        </Point>
      </Placemark>
    </Folder>
    <Folder>
      <name>TAD</name>
      <Placemark>
        <name>TAD MINATITLÁN</name>
        <description><![CDATA[TAD Minatitlán    TAD MINATITLÁN   <br>.]]></description>
        <styleUrl>#icon-1899-0288D1</styleUrl>
        <Point>
          <coordinates>
            -94.529209,17.98775,0
          </coordinates>
        </Point>
      </Placemark>
      <Placemark>
        <name>TAD Tierra Blanca</name>
        <description>TAD Tierra Blanca    TAD Tierra Blanca</description>
        <styleUrl>#icon-1899-0288D1</styleUrl>
        <Point>
          <coordinates>
            -96.343029,18.443254,0
          </coordinates>
        </Point>
      </Placemark>
      <Placemark>
        <name>TAD PUEBLA</name>
        <description>TAD Puebla    TAD Puebla</description>
        <styleUrl>#icon-1899-0288D1</styleUrl>
        <Point>
          <coordinates>
            -98.157386,19.074905,0
          </coordinates>
        </Point>
      </Placemark>
      <Placemark>
        <name>TAD Azcapotzalco</name>
        <description>TAD Azcapotzalco    TAD Azcapotzalco</description>
        <styleUrl>#icon-1899-0288D1</styleUrl>
        <Point>
          <coordinates>
            -99.203226,19.46596,0
          </coordinates>
        </Point>
      </Placemark>
    </Folder>
  </Document>
</kml>
